STARLINK-2367
1 17907C 21021AZ  21326.06355531  .00003539  00000-0  23705-3 0  3269
2 17907  53.0551 123.4569 0001503  85.4955 304.0776 15.06408627    10
